start=new Date('2021-10-20T00:00:00.000Z').valueOf();
sats=[{"TIME_SYSTEM":"UTC","OBJECT_NAME":"STARLINK-3005","PERIOD":"94.987","SEMIMAJOR_AXIS":"6896.101","RCS_SIZE":"LARGE","MEAN_MOTION_DOT":"-0.00048579","RA_OF_ASC_NODE":"60.6994","CLASSIFICATION_TYPE":"U","SITE":"AFETR","MEAN_ELEMENT_THEORY":"SGP4","APOAPSIS":"518.471","EPHEMERIS_TYPE":"0","LAUNCH_DATE":"2021-06-30","NORAD_CAT_ID":"48881","GP_ID":"187632516","TLE_LINE1":"1 48881U 21059C   21293.00001157 -.00048579  00000-0 -25454-2 0  9994","INCLINATION":"97.5242","FILE":"3172644","MEAN_MOTION":"15.15993649","ARG_OF_PERICENTER":"251.7252","DECAY_DATE":null,"TLE_LINE2":"2 48881  97.5242  60.6994 0000733 251.7252  56.6196 15.15993649  3605","ELEMENT_SET_NO":"999","BSTAR":"-0.00254540000000","ECCENTRICITY":"0.00007330","PERIAPSIS":"517.460","CENTER_NAME":"EARTH","REV_AT_EPOCH":"360","OBJECT_ID":"2021-059C","COUNTRY_CODE":"US","OBJECT_TYPE":"PAYLOAD","EPOCH":"2021-10-20T00:00:00.999648","REF_FRAME":"TEME","MEAN_MOTION_DDOT":"0.0000000000000","MEAN_ANOMALY":"56.6196"},{"MEAN_ANOMALY":"300.5942","MEAN_MOTION_DDOT":"0.0000000000000","REF_FRAME":"TEME","OBJECT_TYPE":"PAYLOAD","EPOCH":"2021-10-19T22:00:00.999936","OBJECT_ID":"2021-082B","COUNTRY_CODE":"US","CENTER_NAME":"EARTH","REV_AT_EPOCH":"367","PERIAPSIS":"356.972","TLE_LINE2":"2 49131  70.0011  26.2965 0003956 286.3295 300.5942 15.69741806  3673","DECAY_DATE":null,"ECCENTRICITY":"0.00039560","BSTAR":"-0.00031734000000","ELEMENT_SET_NO":"999","ARG_OF_PERICENTER":"286.3295","FILE":"3172644","MEAN_MOTION":"15.69741806","INCLINATION":"70.0011","TLE_LINE1":"1 49131U 21082B   21292.91667824 -.00037918  00000-0 -31734-3 0  9991","NORAD_CAT_ID":"49131","GP_ID":"187632214","LAUNCH_DATE":"2021-09-14","EPHEMERIS_TYPE":"0","APOAPSIS":"362.303","SITE":"AFWTR","CLASSIFICATION_TYPE":"U","RA_OF_ASC_NODE":"26.2965","MEAN_ELEMENT_THEORY":"SGP4","PERIOD":"91.735","MEAN_MOTION_DOT":"-0.00037918","RCS_SIZE":"LARGE","SEMIMAJOR_AXIS":"6737.773","TIME_SYSTEM":"UTC","OBJECT_NAME":"STARLINK-3096"},{"GP_ID":"187631984","NORAD_CAT_ID":"49132","EPHEMERIS_TYPE":"0","LAUNCH_DATE":"2021-09-14","INCLINATION":"70.0006","MEAN_MOTION":"15.69738233","FILE":"3172644","TLE_LINE1":"1 49132U 21082C   21292.91667824 -.00037568  00000-0 -31444-3 0  9991","SEMIMAJOR_AXIS":"6737.783","MEAN_MOTION_DOT":"-0.00037568","RCS_SIZE":"LARGE","PERIOD":"91.735","OBJECT_NAME":"STARLINK-3090","TIME_SYSTEM":"UTC","APOAPSIS":"362.197","MEAN_ELEMENT_THEORY":"SGP4","CLASSIFICATION_TYPE":"U","RA_OF_ASC_NODE":"26.2987","SITE":"AFWTR","EPOCH":"2021-10-19T22:00:00.999936","OBJECT_TYPE":"PAYLOAD","COUNTRY_CODE":"US","OBJECT_ID":"2021-082C","MEAN_ANOMALY":"294.7687","MEAN_MOTION_DDOT":"0.0000000000000","REF_FRAME":"TEME","ELEMENT_SET_NO":"999","BSTAR":"-0.00031444000000","ECCENTRICITY":"0.00037830","DECAY_DATE":null,"TLE_LINE2":"2 49132  70.0006  26.2987 0003783 290.0013 294.7687 15.69738233  3670","ARG_OF_PERICENTER":"290.0013","REV_AT_EPOCH":"367","CENTER_NAME":"EARTH","PERIAPSIS":"357.099"},{"CENTER_NAME":"EARTH","REV_AT_EPOCH":"367","PERIAPSIS":"357.073","DECAY_DATE":null,"TLE_LINE2":"2 49133  70.0009  26.2932 0003871 288.7251 300.3735 15.69726634  3670","ELEMENT_SET_NO":"999","BSTAR":"-0.00031018000000","ECCENTRICITY":"0.00038710","ARG_OF_PERICENTER":"288.7251","MEAN_MOTION_DDOT":"0.0000000000000","MEAN_ANOMALY":"300.3735","REF_FRAME":"TEME","OBJECT_TYPE":"PAYLOAD","EPOCH":"2021-10-19T22:00:00.999936","OBJECT_ID":"2021-082D","COUNTRY_CODE":"US","APOAPSIS":"362.289","RA_OF_ASC_NODE":"26.2932","CLASSIFICATION_TYPE":"U","SITE":"AFWTR","MEAN_ELEMENT_THEORY":"SGP4","PERIOD":"91.736","SEMIMAJOR_AXIS":"6737.816","MEAN_MOTION_DOT":"-0.00037047","RCS_SIZE":"LARGE","TIME_SYSTEM":"UTC","OBJECT_NAME":"STARLINK-3077","INCLINATION":"70.0009","MEAN_MOTION":"15.69726634","FILE":"3172644","TLE_LINE1":"1 49133U 21082D   21292.91667824 -.00037047  00000-0 -31018-3 0  9991","GP_ID":"187632546","NORAD_CAT_ID":"49133","EPHEMERIS_TYPE":"0","LAUNCH_DATE":"2021-09-14"},{"SITE":"AFWTR","CLASSIFICATION_TYPE":"U","RA_OF_ASC_NODE":"26.2836","MEAN_ELEMENT_THEORY":"SGP4","APOAPSIS":"362.462","TIME_SYSTEM":"UTC","OBJECT_NAME":"STARLINK-3078","PERIOD":"91.737","MEAN_MOTION_DOT":"-0.00036180","RCS_SIZE":"LARGE","SEMIMAJOR_AXIS":"6737.868","TLE_LINE1":"1 49134U 21082E   21292.91667824 -.00036180  00000-0 -30306-3 0  9998","MEAN_MOTION":"15.69708533","FILE":"3172644","INCLINATION":"70.0018","LAUNCH_DATE":"2021-09-14","EPHEMERIS_TYPE":"0","GP_ID":"187632091","NORAD_CAT_ID":"49134","PERIAPSIS":"357.004","CENTER_NAME":"EARTH","REV_AT_EPOCH":"367","ARG_OF_PERICENTER":"289.4897","TLE_LINE2":"2 49134  70.0018  26.2836 0004050 289.4897 308.0933 15.69708533  3671","DECAY_DATE":null,"ECCENTRICITY":"0.00040500","BSTAR":"-0.00030306000000","ELEMENT_SET_NO":"999","REF_FRAME":"TEME","MEAN_MOTION_DDOT":"0.0000000000000","MEAN_ANOMALY":"308.0933","OBJECT_ID":"2021-082E","COUNTRY_CODE":"US","OBJECT_TYPE":"PAYLOAD","EPOCH":"2021-10-19T22:00:00.999936"},{"LAUNCH_DATE":"2021-09-14","EPHEMERIS_TYPE":"0","GP_ID":"187631873","NORAD_CAT_ID":"49135","TLE_LINE1":"1 49135U 21082F   21292.91667824 -.00036635  00000-0 -30711-3 0  9994","MEAN_MOTION":"15.69695011","FILE":"3172644","INCLINATION":"70.0010","TIME_SYSTEM":"UTC","OBJECT_NAME":"STARLINK-3073","PERIOD":"91.738","RCS_SIZE":"LARGE","MEAN_MOTION_DOT":"-0.00036635","SEMIMAJOR_AXIS":"6737.907","SITE":"AFWTR","RA_OF_ASC_NODE":"26.2868","CLASSIFICATION_TYPE":"U","MEAN_ELEMENT_THEORY":"SGP4","APOAPSIS":"362.254","OBJECT_ID":"2021-082F","COUNTRY_CODE":"US","OBJECT_TYPE":"PAYLOAD","EPOCH":"2021-10-19T22:00:00.999936","REF_FRAME":"TEME","MEAN_ANOMALY":"301.7209","MEAN_MOTION_DDOT":"0.0000000000000","ARG_OF_PERICENTER":"291.6431","TLE_LINE2":"2 49135  70.0010  26.2868 0003684 291.6431 301.7209 15.69695011  3672","DECAY_DATE":null,"BSTAR":"-0.00030711000000","ECCENTRICITY":"0.00036840","ELEMENT_SET_NO":"999","PERIAPSIS":"357.289","CENTER_NAME":"EARTH","REV_AT_EPOCH":"367"},{"LAUNCH_DATE":"2021-09-14","EPHEMERIS_TYPE":"0","NORAD_CAT_ID":"49136","GP_ID":"187632327","TLE_LINE1":"1 49136U 21082G   21292.91667824 -.00036503  00000-0 -30531-3 0  9999","MEAN_MOTION":"15.69750569","FILE":"3172644","INCLINATION":"70.0019","OBJECT_NAME":"STARLINK-3084","TIME_SYSTEM":"UTC","RCS_SIZE":"LARGE","MEAN_MOTION_DOT":"-0.00036503","SEMIMAJOR_AXIS":"6737.748","PERIOD":"91.734","MEAN_ELEMENT_THEORY":"SGP4","SITE":"AFWTR","CLASSIFICATION_TYPE":"U","RA_OF_ASC_NODE":"26.2910","APOAPSIS":"361.915","COUNTRY_CODE":"US","OBJECT_ID":"2021-082G","EPOCH":"2021-10-19T22:00:00.999936","OBJECT_TYPE":"PAYLOAD","REF_FRAME":"TEME","MEAN_MOTION_DDOT":"0.0000000000000","MEAN_ANOMALY":"302.6223","ARG_OF_PERICENTER":"288.6221","ECCENTRICITY":"0.00034170","BSTAR":"-0.00030531000000","ELEMENT_SET_NO":"999","TLE_LINE2":"2 49136  70.0019  26.2910 0003417 288.6221 302.6223 15.69750569  3673","DECAY_DATE":null,"PERIAPSIS":"357.310","REV_AT_EPOCH":"367","CENTER_NAME":"EARTH"},{"OBJECT_ID":"2021-082H","COUNTRY_CODE":"US","OBJECT_TYPE":"PAYLOAD","EPOCH":"2021-10-19T22:00:00.999936","REF_FRAME":"TEME","MEAN_MOTION_DDOT":"0.0000000000000","MEAN_ANOMALY":"303.6584","ARG_OF_PERICENTER":"291.8305","DECAY_DATE":null,"TLE_LINE2":"2 49137  70.0011  26.2848 0003606 291.8305 303.6584 15.69756207  3671","ELEMENT_SET_NO":"999","ECCENTRICITY":"0.00036060","BSTAR":"-0.00030779000000","PERIAPSIS":"357.167","CENTER_NAME":"EARTH","REV_AT_EPOCH":"367","EPHEMERIS_TYPE":"0","LAUNCH_DATE":"2021-09-14","GP_ID":"187632650","NORAD_CAT_ID":"49137","TLE_LINE1":"1 49137U 21082H   21292.91667824 -.00036807  00000-0 -30779-3 0  9991","INCLINATION":"70.0011","FILE":"3172644","MEAN_MOTION":"15.69756207","TIME_SYSTEM":"UTC","OBJECT_NAME":"STARLINK-3055","PERIOD":"91.734","SEMIMAJOR_AXIS":"6737.732","RCS_SIZE":"LARGE","MEAN_MOTION_DOT":"-0.00036807","RA_OF_ASC_NODE":"26.2848","CLASSIFICATION_TYPE":"U","SITE":"AFWTR","MEAN_ELEMENT_THEORY":"SGP4","APOAPSIS":"362.026"},{"MEAN_ANOMALY":"311.0737","MEAN_MOTION_DDOT":"0.0000000000000","REF_FRAME":"TEME","EPOCH":"2021-10-19T22:00:00.999936","OBJECT_TYPE":"PAYLOAD","COUNTRY_CODE":"US","OBJECT_ID":"2021-082J","REV_AT_EPOCH":"367","CENTER_NAME":"EARTH","PERIAPSIS":"357.061","BSTAR":"-0.00030768000000","ECCENTRICITY":"0.00039250","ELEMENT_SET_NO":"999","TLE_LINE2":"2 49138  70.0020  26.2786 0003925 290.7674 311.0737 15.69718168  3671","DECAY_DATE":null,"ARG_OF_PERICENTER":"290.7674","MEAN_MOTION":"15.69718168","FILE":"3172644","INCLINATION":"70.0020","TLE_LINE1":"1 49138U 21082J   21292.91667824 -.00036739  00000-0 -30768-3 0  9994","GP_ID":"187632433","NORAD_CAT_ID":"49138","LAUNCH_DATE":"2021-09-14","EPHEMERIS_TYPE":"0","APOAPSIS":"362.350","MEAN_ELEMENT_THEORY":"SGP4","SITE":"AFWTR","RA_OF_ASC_NODE":"26.2786","CLASSIFICATION_TYPE":"U","RCS_SIZE":"LARGE","MEAN_MOTION_DOT":"-0.00036739","SEMIMAJOR_AXIS":"6737.840","PERIOD":"91.736","OBJECT_NAME":"STARLINK-3058","TIME_SYSTEM":"UTC"},{"LAUNCH_DATE":"2021-09-14","EPHEMERIS_TYPE":"0","GP_ID":"187608312","NORAD_CAT_ID":"49139","TLE_LINE1":"1 49139U 21082K   21292.91667824 -.00136802  00000-0 -11610-2 0  9991","FILE":"3172570","MEAN_MOTION":"15.69787326","INCLINATION":"70.0006","TIME_SYSTEM":"UTC","OBJECT_NAME":"STARLINK-3057","PERIOD":"91.732","RCS_SIZE":"LARGE","MEAN_MOTION_DOT":"-0.00136802","SEMIMAJOR_AXIS":"6737.642","SITE":"AFWTR","RA_OF_ASC_NODE":"26.2807","CLASSIFICATION_TYPE":"U","MEAN_ELEMENT_THEORY":"SGP4","APOAPSIS":"362.019","OBJECT_ID":"2021-082K","COUNTRY_CODE":"US","OBJECT_TYPE":"PAYLOAD","EPOCH":"2021-10-19T22:00:00.999936","REF_FRAME":"TEME","MEAN_MOTION_DDOT":"0.0000000000000","MEAN_ANOMALY":"308.6355","ARG_OF_PERICENTER":"291.1364","TLE_LINE2":"2 49139  70.0006  26.2807 0003728 291.1364 308.6355 15.69787326  5720","DECAY_DATE":null,"BSTAR":"-0.00116100000000","ECCENTRICITY":"0.00037280","ELEMENT_SET_NO":"999","PERIAPSIS":"356.996","CENTER_NAME":"EARTH","REV_AT_EPOCH":"572"}];
